address,city,state,zip
777 Brockton Avenue,Abington,MA,2351
30 Memorial Drive,Avon,MA,2322
250 Hartford Avenue,Bellinghm,MN,2019
700 Oak Street,Brockton,MA,2301
66-4 Parkhurst Rd,Chelmsford,MA,1824
591 Memorial Dr,Chicopee,MA,1020
55 Brooksby Village Way,Danvers,MA,1923
137 Teaticket Hwy,East Falmth,MA,2536
42 Fairhaven Commons Way,Fairhaven,MA,2719
315 Foxon Blvd,New Haven,CT,6513
164 Danbury Rd,New Milford,CT,6776
3005 Cranberry Hwy Rt 6 28,Wareham,MA,2538
141 Washington Ave Extension,Albany,N,12205
450 Highland Ave,Salem,A,1970
591 Memorial Dr,Chicopee,MA,1020
55 Brooksby Village Way,Danvers,MA,1923
137 Teaticket Hwy,East Falmth,MA,2536
337 Russell St,Hadley,MA,1035
295 Plymouth Street,Halifax,MA,2338
1775 Washington St,Hanover,MA,2339
280 Washington Street,Hudson,MA,1749
20 Soojian Dr,Leicester,MA,1524
777 Brockton Avenue,Abington,MA,2351
164 Denbury Rd,New Milord,CT,6776
337 Russell St,Hadley,MA,1035
295 Plymoth Strt,Halifax,MA,2338
280 Wasngton Stt,Hudso,MA,1749
